{
  "norad_id": 31306,
  "name": "ASTRA 1L",
  "history": [
    {
      "epoch": "2026-03-28T20:12:38.537280",
      "apogee_km": 35803.54146265078,
      "perigee_km": 35769.8273147648,
      "latitude_deg": 0.2775651572466107,
      "longitude_deg": -88.55718079977669,
      "semi_major_axis_km": 42164.821388707795,
      "eccentricity": 0.00039979,
      "inclination_deg": 1.1147,
      "raan_deg": 82.1375,
      "arg_perigee_deg": 300.7157,
      "mean_anomaly_deg": 82.0358,
      "mean_motion_rev_day": 1.00271466
    },
    {
      "epoch": "2026-03-29T04:47:50.859744",
      "apogee_km": 35803.58263713967,
      "perigee_km": 35769.79174703213,
      "latitude_deg": 0.8082710591715696,
      "longitude_deg": -54.21015583979897,
      "semi_major_axis_km": 42164.82419208591,
      "eccentricity": 0.0004007,
      "inclination_deg": 1.1156,
      "raan_deg": 82.1337,
      "arg_perigee_deg": 301.4455,
      "mean_anomaly_deg": 210.4639,
      "mean_motion_rev_day": 1.00271456
    }
  ]
}